CONNECTA IOT-1          
1 60472U 24149E   26264.75276685  .00005480  00000+0  22698-3 0  9991
2 60472  97.3686 339.4171 0000868 343.7808  16.3402 15.24323403116509
CONNECTA IOT-3          
1 60475U 24149H   26265.16818767  .00005630  00000+0  23353-3 0  9999
2 60475  97.3663 339.5464 0001405 298.6762  61.4334 15.24262052116572
CONNECTA IOT-2          
1 60522U 24149BG  26265.26682832  .00005637  00000+0  22975-3 0  9991
2 60522  97.3773 341.9519 0005988 356.3569   3.7624 15.24842137116683
CONNECTA IOT-4          
1 60524U 24149BJ  26265.23034702  .00022006  00000+0  45253-3 0  9990
2 60524  97.3745 350.9717 0003905 296.4987  63.5862 15.45979531117309
CONNECTA IOT-8          
1 62695U 25009CQ  26265.19918044  .00000932  00000+0  94094-4 0  9994
2 62695  97.7008 341.0924 0003749  56.7480 303.4099 14.93400930 91772
CONNECTA IOT-5          
1 62703U 25009CY  26265.18162222  .00000629  00000+0  63651-4 0  9990
2 62703  97.6961 341.9006 0003789  96.3226 263.8426 14.94362964 91858
CONNECTA IOT-6          
1 62709U 25009DE  26264.75413924  .00000814  00000+0  80731-4 0  9990
2 62709  97.6974 341.2630 0002374 137.8794 222.2609 14.94437208 91782
CONNECTA IOT-7          
1 62715U 25009DL  26265.26763626  .00000926  00000+0  91276-4 0  9991
2 62715  97.7015 342.2201 0001000 158.7273 201.3989 14.94391085 91848
CONNECTA IOT-9          
1 64534U 25135G   26265.26922712  .00005395  00000+0  24821-3 0  9991
2 64534  97.4833  19.3457 0005100 178.3151 181.8103 15.20742716 69573
CONNECTA IOT-12         
1 64553U 25135AB  26265.13115752  .00002842  00000+0  13077-3 0  9991
2 64553  97.4813  19.8834 0002202  80.9594 279.1891 15.21148467 69608
CONNECTA IOT-10         
1 64555U 25135AD  26264.95240556  .00005241  00000+0  23844-3 0  9992
2 64555  97.4759  19.1463 0001230  50.2490 309.8854 15.21152946 69567
CONNECTA IOT-11         
1 64557U 25135AF  26264.82918983  .00003172  00000+0  14510-3 0  9997
2 64557  97.4787  19.3531 0002029  56.1403 304.0026 15.21261808 69559
CONNECTA IOT-16         
1 67390U 26004AD  26264.93782441  .00005469  00000+0  26754-3 0  9995
2 67390  97.4653 262.5701 0004364  36.2365 323.9164 15.18608888 38424
CONNECTA IOT-13         
1 67400U 26004AP  26264.75789123  .00005178  00000+0  25273-3 0  9993
2 67400  97.4630 262.4256 0009033  27.7460 332.4255 15.18688457 38408
CONNECTA IOT-14         
1 67401U 26004AQ  26265.24977174  .00005205  00000+0  24944-3 0  9999
2 67401  97.4575 262.9593 0009638  15.1168 345.0353 15.19320098 38496
CONNECTA IOT-15         
1 67402U 26004AR  26264.96838969  .00004981  00000+0  24454-3 0  9992
2 67402  97.4634 262.4646 0003645  30.5650 329.5796 15.18525099 38413
